{
  "type": "FeatureCollection",
  "features": [
    {
      "type": "Feature",
      "properties": {
        "norad_id": 39773,
        "name": "EUTELSAT 3B",
        "group": "eutelsat",
        "lat": -0.06879625027455367,
        "lon": -47.9201442411276,
        "alt_km": 35782.50018406178,
        "timestamp": "2025-12-20T14:38:01.630039+00:00",
        "meta_object_name": "EUTELSAT 3B",
        "meta_object_id": "2014-030A",
        "meta_epoch": "2025-12-20T02:58:22.554624",
        "meta_mean_motion": 1.00272501,
        "meta_eccentricity": 0.0004169,
        "meta_inclination": 0.0607,
        "meta_ra_of_asc_node": 5.5727,
        "meta_arg_of_pericenter": 227.188,
        "meta_mean_anomaly": 263.8885,
        "meta_ephemeris_type": 0,
        "meta_classification_type": "U",
        "meta_norad_cat_id": 39773,
        "meta_element_set_no": 999,
        "meta_rev_at_epoch": 4227,
        "meta_bstar": 0,
        "meta_mean_motion_dot": 4.4e-07,
        "meta_mean_motion_ddot": 0,
        "tle_line1": "1 39773U 14030A   25354.12387216  .00000044  00000+0  00000+0 0  9992",
        "tle_line2": "2 39773   0.0607   5.5727 0004169 227.1880 263.8885  1.00272501 42271"
      },
      "geometry": {
        "type": "Point",
        "coordinates": [
          -47.9201442411276,
          -0.06879625027455367
        ]
      }
    },
    {
      "type": "Feature",
      "properties": {
        "norad_id": 40425,
        "name": "EUTELSAT 115 WEST B",
        "group": "eutelsat",
        "lat": 0.006228375974113065,
        "lon": -165.9583487557184,
        "alt_km": 35787.190551457184,
        "timestamp": "2025-12-20T14:38:01.630052+00:00",
        "meta_object_name": "EUTELSAT 115 WEST B",
        "meta_object_id": "2015-010B",
        "meta_epoch": "2025-12-20T04:37:38.709696",
        "meta_mean_motion": 1.00271744,
        "meta_eccentricity": 3.747e-05,
        "meta_inclination": 0.0106,
        "meta_ra_of_asc_node": 158.3005,
        "meta_arg_of_pericenter": 170.8788,
        "meta_mean_anomaly": 74.3684,
        "meta_ephemeris_type": 0,
        "meta_classification_type": "U",
        "meta_norad_cat_id": 40425,
        "meta_element_set_no": 999,
        "meta_rev_at_epoch": 3959,
        "meta_bstar": 0,
        "meta_mean_motion_dot": -1e-08,
        "meta_mean_motion_ddot": 0,
        "tle_line1": "1 40425U 15010B   25354.19280914 -.00000001  00000+0  00000+0 0  9995",
        "tle_line2": "2 40425   0.0106 158.3005 0000374 170.8788  74.3684  1.00271744 39593"
      },
      "geometry": {
        "type": "Point",
        "coordinates": [
          -165.9583487557184,
          0.006228375974113065
        ]
      }
    },
    {
      "type": "Feature",
      "properties": {
        "norad_id": 40875,
        "name": "EUTELSAT 8 WEST B",
        "group": "eutelsat",
        "lat": -0.07551915992972164,
        "lon": -59.03077445668192,
        "alt_km": 35770.775403876316,
        "timestamp": "2025-12-20T14:38:01.630064+00:00",
        "meta_object_name": "EUTELSAT 8 WEST B",
        "meta_object_id": "2015-039B",
        "meta_epoch": "2025-12-20T03:56:38.500800",
        "meta_mean_motion": 1.00271058,
        "meta_eccentricity": 0.00042762,
        "meta_inclination": 0.0633,
        "meta_ra_of_asc_node": 357.3872,
        "meta_arg_of_pericenter": 272.4558,
        "meta_mean_anomaly": 230.3262,
        "meta_ephemeris_type": 0,
        "meta_classification_type": "U",
        "meta_norad_cat_id": 40875,
        "meta_element_set_no": 999,
        "meta_rev_at_epoch": 3786,
        "meta_bstar": 0,
        "meta_mean_motion_dot": -4.2e-07,
        "meta_mean_motion_ddot": 0,
        "tle_line1": "1 40875U 15039B   25354.16433450 -.00000042  00000+0  00000+0 0  9992",
        "tle_line2": "2 40875   0.0633 357.3872 0004276 272.4558 230.3262  1.00271058 37861"
      },
      "geometry": {
        "type": "Point",
        "coordinates": [
          -59.03077445668192,
          -0.07551915992972164
        ]
      }
    },
    {
      "type": "Feature",
      "properties": {
        "norad_id": 41310,
        "name": "EUTELSAT 9B",
        "group": "eutelsat",
        "lat": -0.06994329655451526,
        "lon": -42.03177561727571,
        "alt_km": 35771.966515114014,
        "timestamp": "2025-12-20T14:38:01.630076+00:00",
        "meta_object_name": "EUTELSAT 9B",
        "meta_object_id": "2016-005A",
        "meta_epoch": "2025-12-20T03:00:07.388064",
        "meta_mean_motion": 1.00272576,
        "meta_eccentricity": 0.0004466,
        "meta_inclination": 0.0617,
        "meta_ra_of_asc_node": 71.3898,
        "meta_arg_of_pericenter": 203.7211,
        "meta_mean_anomaly": 227.8764,
        "meta_ephemeris_type": 0,
        "meta_classification_type": "U",
        "meta_norad_cat_id": 41310,
        "meta_element_set_no": 999,
        "meta_rev_at_epoch": 3632,
        "meta_bstar": 0,
        "meta_mean_motion_dot": 8.6e-07,
        "meta_mean_motion_ddot": 0,
        "tle_line1": "1 41310U 16005A   25354.12508551  .00000086  00000+0  00000+0 0  9999",
        "tle_line2": "2 41310   0.0617  71.3898 0004466 203.7211 227.8764  1.00272576 36327"
      },
      "geometry": {
        "type": "Point",
        "coordinates": [
          -42.03177561727571,
          -0.06994329655451526
        ]
      }
    },
    {
      "type": "Feature",
      "properties": {
        "norad_id": 41382,
        "name": "EUTELSAT 65 WEST A",
        "group": "eutelsat",
        "lat": -0.07781509750339476,
        "lon": -116.27663632721132,
        "alt_km": 35777.58970685508,
        "timestamp": "2025-12-20T14:38:01.630088+00:00",
        "meta_object_name": "EUTELSAT 65 WEST A",
        "meta_object_id": "2016-014A",
        "meta_epoch": "2025-12-20T04:21:37.082016",
        "meta_mean_motion": 1.00274182,
        "meta_eccentricity": 0.00021208,
        "meta_inclination": 0.0535,
        "meta_ra_of_asc_node": 331.4387,
        "meta_arg_of_pericenter": 301.0776,
        "meta_mean_anomaly": 176.7007,
        "meta_ephemeris_type": 0,
        "meta_classification_type": "U",
        "meta_norad_cat_id": 41382,
        "meta_element_set_no": 999,
        "meta_rev_at_epoch": 3574,
        "meta_bstar": 0,
        "meta_mean_motion_dot": -2.52e-06,
        "meta_mean_motion_ddot": 0,
        "tle_line1": "1 41382U 16014A   25354.18167919 -.00000252  00000+0  00000+0 0  9999",
        "tle_line2": "2 41382   0.0535 331.4387 0002120 301.0776 176.7007  1.00274182 35743"
      },
      "geometry": {
        "type": "Point",
        "coordinates": [
          -116.27663632721132,
          -0.07781509750339476
        ]
      }
    },
    {
      "type": "Feature",
      "properties": {
        "norad_id": 41589,
        "name": "EUTELSAT 117 WEST B",
        "group": "eutelsat",
        "lat": 0.003881083708197501,
        "lon": -168.04905079926687,
        "alt_km": 35786.96808398705,
        "timestamp": "2025-12-20T14:38:01.630099+00:00",
        "meta_object_name": "EUTELSAT 117 WEST B",
        "meta_object_id": "2016-038B",
        "meta_epoch": "2025-12-19T12:07:15.989088",
        "meta_mean_motion": 1.00271292,
        "meta_eccentricity": 3.33e-05,
        "meta_inclination": 0.0139,
        "meta_ra_of_asc_node": 154.0822,
        "meta_arg_of_pericenter": 162.5919,
        "meta_mean_anomaly": 196.5118,
        "meta_ephemeris_type": 0,
        "meta_classification_type": "U",
        "meta_norad_cat_id": 41589,
        "meta_element_set_no": 999,
        "meta_rev_at_epoch": 3486,
        "meta_bstar": 0,
        "meta_mean_motion_dot": 1.3e-07,
        "meta_mean_motion_ddot": 0,
        "tle_line1": "1 41589U 16038B   25353.50504617  .00000013  00000+0  00000+0 0  9993",
        "tle_line2": "2 41589   0.0139 154.0822 0000333 162.5919 196.5118  1.00271292 34862"
      },
      "geometry": {
        "type": "Point",
        "coordinates": [
          -168.04905079926687,
          0.003881083708197501
        ]
      }
    },
    {
      "type": "Feature",
      "properties": {
        "norad_id": 42741,
        "name": "EUTELSAT 172B",
        "group": "eutelsat",
        "lat": 0.020533775912616944,
        "lon": 120.94104817432142,
        "alt_km": 35785.1608901533,
        "timestamp": "2025-12-20T14:38:01.630118+00:00",
        "meta_object_name": "EUTELSAT 172B",
        "meta_object_id": "2017-029B",
        "meta_epoch": "2025-12-20T03:46:32.942208",
        "meta_mean_motion": 1.00272204,
        "meta_eccentricity": 2.319e-05,
        "meta_inclination": 0.0401,
        "meta_ra_of_asc_node": 131.6272,
        "meta_arg_of_pericenter": 312.3551,
        "meta_mean_anomaly": 233.6503,
        "meta_ephemeris_type": 0,
        "meta_classification_type": "U",
        "meta_norad_cat_id": 42741,
        "meta_element_set_no": 999,
        "meta_rev_at_epoch": 3193,
        "meta_bstar": 0,
        "meta_mean_motion_dot": 1.9e-07,
        "meta_mean_motion_ddot": 0,
        "tle_line1": "1 42741U 17029B   25354.15732572  .00000019  00000+0  00000+0 0  9996",
        "tle_line2": "2 42741   0.0401 131.6272 0000231 312.3551 233.6503  1.00272204 31939"
      },
      "geometry": {
        "type": "Point",
        "coordinates": [
          120.94104817432142,
          0.020533775912616944
        ]
      }
    }
  ]
}